ONEWEB-0350             
1 49214U 21083AE  24347.67025191  .00000062  00000+0  13463-3 0  9992
2 49214  87.8928  69.9118 0001877 115.3329 244.7994 13.13469402158539
ONEWEB-0354             
1 49217U 21083AH  24347.62363487  .00000099  00000+0  21274-3 0  9992
2 49217  87.9259  24.1655 0001938 105.7667 254.3680 13.20772558164000
ONEWEB-0355             
1 49218U 21083AJ  24347.68136240  .00000894  00000+0  24123-2 0  9992
2 49218  87.8932  69.9447 0001972 112.3736 247.7603 13.13466192158508
ONEWEB-0357             
1 49219U 21083AK  24347.62047727  .00000040  00000+0  65701-4 0  9990
2 49219  87.9255  24.1786 0001658  99.0033 261.1288 13.20771760164008
ONEWEB-0347             
1 49280U 21090B   24347.61101126  .00000087  00000+0  18273-3 0  9991
2 49280  87.9257  24.1838 0001804  82.3915 277.7423 13.20772617158237
